{
  "type": "FeatureCollection",
  "features": [
    {
      "type": "Feature",
      "properties": {
        "norad_id": 29937,
        "name": "FENGYUN 1C DEB",
        "group": "fengyun-1c-debris",
        "lat": -45.46857390608768,
        "lon": 28.493446441750603,
        "alt_km": 866.252977144336,
        "timestamp": "2025-12-24T18:55:56.340813+00:00",
        "meta_object_name": "FENGYUN 1C DEB",
        "meta_object_id": "1999-025JK",
        "meta_epoch": "2025-12-24T00:35:41.958816",
        "meta_mean_motion": 14.04360161,
        "meta_eccentricity": 0.00318207,
        "meta_inclination": 98.8015,
        "meta_ra_of_asc_node": 18.692,
        "meta_arg_of_pericenter": 350.0651,
        "meta_mean_anomaly": 63.3645,
        "meta_ephemeris_type": 0,
        "meta_classification_type": "U",
        "meta_norad_cat_id": 29937,
        "meta_element_set_no": 999,
        "meta_rev_at_epoch": 97094,
        "meta_bstar": -1.6074732e-05,
        "meta_mean_motion_dot": -6.8e-07,
        "meta_mean_motion_ddot": 0,
        "tle_line1": "1 29937U 99025JK  25358.02479119 -.00000068  00000+0 -16075-4 0  9999",
        "tle_line2": "2 29937  98.8015  18.6920 0031820 350.0651  63.3645 14.04360161970945"
      },
      "geometry": {
        "type": "Point",
        "coordinates": [
          28.493446441750603,
          -45.46857390608768
        ]
      }
    },
    {
      "type": "Feature",
      "properties": {
        "norad_id": 29938,
        "name": "FENGYUN 1C DEB",
        "group": "fengyun-1c-debris",
        "lat": 14.339276105769605,
        "lon": -13.778822270973482,
        "alt_km": 872.3596518506383,
        "timestamp": "2025-12-24T18:55:56.340823+00:00",
        "meta_object_name": "FENGYUN 1C DEB",
        "meta_object_id": "1999-025JL",
        "meta_epoch": "2025-12-23T18:07:19.133184",
        "meta_mean_motion": 14.07464091,
        "meta_eccentricity": 0.00325979,
        "meta_inclination": 98.803,
        "meta_ra_of_asc_node": 347.4843,
        "meta_arg_of_pericenter": 278.9682,
        "meta_mean_anomaly": 260.2466,
        "meta_ephemeris_type": 0,
        "meta_classification_type": "U",
        "meta_norad_cat_id": 29938,
        "meta_element_set_no": 999,
        "meta_rev_at_epoch": 97211,
        "meta_bstar": 6.933705e-05,
        "meta_mean_motion_dot": 7.4e-07,
        "meta_mean_motion_ddot": 0,
        "tle_line1": "1 29938U 99025JL  25357.75508256  .00000074  00000+0  69337-4 0  9998",
        "tle_line2": "2 29938  98.8030 347.4843 0032597 278.9682 260.2466 14.07464091972114"
      },
      "geometry": {
        "type": "Point",
        "coordinates": [
          -13.778822270973482,
          14.339276105769605
        ]
      }
    },
    {
      "type": "Feature",
      "properties": {
        "norad_id": 29939,
        "name": "FENGYUN 1C DEB",
        "group": "fengyun-1c-debris",
        "lat": -25.664594315798535,
        "lon": 173.80763182638748,
        "alt_km": 866.9126979391822,
        "timestamp": "2025-12-24T18:55:56.340834+00:00",
        "meta_object_name": "FENGYUN 1C DEB",
        "meta_object_id": "1999-025JM",
        "meta_epoch": "2025-12-23T23:21:25.858944",
        "meta_mean_motion": 14.12087039,
        "meta_eccentricity": 0.0067269,
        "meta_inclination": 98.7101,
        "meta_ra_of_asc_node": 357.2396,
        "meta_arg_of_pericenter": 107.0349,
        "meta_mean_anomaly": 274.1348,
        "meta_ephemeris_type": 0,
        "meta_classification_type": "U",
        "meta_norad_cat_id": 29939,
        "meta_element_set_no": 999,
        "meta_rev_at_epoch": 97619,
        "meta_bstar": 3.4088e-05,
        "meta_mean_motion_dot": 2.2e-07,
        "meta_mean_motion_ddot": 0,
        "tle_line1": "1 29939U 99025JM  25357.97321596  .00000022  00000+0  34088-4 0  9991",
        "tle_line2": "2 29939  98.7101 357.2396 0067269 107.0349 274.1348 14.12087039976195"
      },
      "geometry": {
        "type": "Point",
        "coordinates": [
          173.80763182638748,
          -25.664594315798535
        ]
      }
    },
    {
      "type": "Feature",
      "properties": {
        "norad_id": 29940,
        "name": "FENGYUN 1C DEB",
        "group": "fengyun-1c-debris",
        "lat": -58.04476103027244,
        "lon": 22.212545370033016,
        "alt_km": 866.4809604846077,
        "timestamp": "2025-12-24T18:55:56.340844+00:00",
        "meta_object_name": "FENGYUN 1C DEB",
        "meta_object_id": "1999-025JN",
        "meta_epoch": "2025-12-24T07:25:17.980896",
        "meta_mean_motion": 14.18849516,
        "meta_eccentricity": 0.00746017,
        "meta_inclination": 98.6213,
        "meta_ra_of_asc_node": 7.6699,
        "meta_arg_of_pericenter": 66.8124,
        "meta_mean_anomaly": 306.4467,
        "meta_ephemeris_type": 0,
        "meta_classification_type": "U",
        "meta_norad_cat_id": 29940,
        "meta_element_set_no": 999,
        "meta_rev_at_epoch": 97652,
        "meta_bstar": 0.00056940658,
        "meta_mean_motion_dot": 1.176e-05,
        "meta_mean_motion_ddot": 0,
        "tle_line1": "1 29940U 99025JN  25358.30923589  .00001176  00000+0  56941-3 0  9993",
        "tle_line2": "2 29940  98.6213   7.6699 0074601  66.8124 306.4467 14.18849516976523"
      },
      "geometry": {
        "type": "Point",
        "coordinates": [
          22.212545370033016,
          -58.04476103027244
        ]
      }
    },
    {
      "type": "Feature",
      "properties": {
        "norad_id": 29942,
        "name": "FENGYUN 1C DEB",
        "group": "fengyun-1c-debris",
        "lat": -53.47984354247962,
        "lon": 76.38404177612975,
        "alt_km": 782.3825892252644,
        "timestamp": "2025-12-24T18:55:56.340855+00:00",
        "meta_object_name": "FENGYUN 1C DEB",
        "meta_object_id": "1999-025JQ",
        "meta_epoch": "2025-12-24T04:04:38.730144",
        "meta_mean_motion": 14.30451383,
        "meta_eccentricity": 0.00492544,
        "meta_inclination": 98.636,
        "meta_ra_of_asc_node": 63.9265,
        "meta_arg_of_pericenter": 242.0308,
        "meta_mean_anomaly": 117.5885,
        "meta_ephemeris_type": 0,
        "meta_classification_type": "U",
        "meta_norad_cat_id": 29942,
        "meta_element_set_no": 999,
        "meta_rev_at_epoch": 98032,
        "meta_bstar": 0.00064604913,
        "meta_mean_motion_dot": 1.659e-05,
        "meta_mean_motion_ddot": 0,
        "tle_line1": "1 29942U 99025JQ  25358.16989271  .00001659  00000+0  64605-3 0  9991",
        "tle_line2": "2 29942  98.6360  63.9265 0049254 242.0308 117.5885 14.30451383980323"
      },
      "geometry": {
        "type": "Point",
        "coordinates": [
          76.38404177612975,
          -53.47984354247962
        ]
      }
    },
    {
      "type": "Feature",
      "properties": {
        "norad_id": 29943,
        "name": "FENGYUN 1C DEB",
        "group": "fengyun-1c-debris",
        "lat": 72.52853371051582,
        "lon": -23.031557958575828,
        "alt_km": 865.2958819599835,
        "timestamp": "2025-12-24T18:55:56.340865+00:00",
        "meta_object_name": "FENGYUN 1C DEB",
        "meta_object_id": "1999-025JR",
        "meta_epoch": "2025-12-23T22:25:31.109376",
        "meta_mean_motion": 14.09673289,
        "meta_eccentricity": 0.0035323,
        "meta_inclination": 98.7267,
        "meta_ra_of_asc_node": 5.3487,
        "meta_arg_of_pericenter": 194.9247,
        "meta_mean_anomaly": 226.4609,
        "meta_ephemeris_type": 0,
        "meta_classification_type": "U",
        "meta_norad_cat_id": 29943,
        "meta_element_set_no": 999,
        "meta_rev_at_epoch": 97464,
        "meta_bstar": -7.1714e-06,
        "meta_mean_motion_dot": -5.5e-07,
        "meta_mean_motion_ddot": 0,
        "tle_line1": "1 29943U 99025JR  25357.93438784 -.00000055  00000+0 -71714-5 0  9996",
        "tle_line2": "2 29943  98.7267   5.3487 0035323 194.9247 226.4609 14.09673289974645"
      },
      "geometry": {
        "type": "Point",
        "coordinates": [
          -23.031557958575828,
          72.52853371051582
        ]
      }
    },
    {
      "type": "Feature",
      "properties": {
        "norad_id": 29944,
        "name": "FENGYUN 1C DEB",
        "group": "fengyun-1c-debris",
        "lat": 20.024855313097927,
        "lon": -68.82495610497858,
        "alt_km": 720.6082150131406,
        "timestamp": "2025-12-24T18:55:56.340875+00:00",
        "meta_object_name": "FENGYUN 1C DEB",
        "meta_object_id": "1999-025JS",
        "meta_epoch": "2025-12-24T02:41:45.764736",
        "meta_mean_motion": 14.87682716,
        "meta_eccentricity": 0.01665253,
        "meta_inclination": 99.0051,
        "meta_ra_of_asc_node": 293.721,
        "meta_arg_of_pericenter": 195.5481,
        "meta_mean_anomaly": 164.0582,
        "meta_ephemeris_type": 0,
        "meta_classification_type": "U",
        "meta_norad_cat_id": 29944,
        "meta_element_set_no": 999,
        "meta_rev_at_epoch": 623,
        "meta_bstar": 0.00076941518,
        "meta_mean_motion_dot": 8.983e-05,
        "meta_mean_motion_ddot": 0,
        "tle_line1": "1 29944U 99025JS  25358.11233524  .00008983  00000+0  76942-3 0  9995",
        "tle_line2": "2 29944  99.0051 293.7210 0166525 195.5481 164.0582 14.87682716  6233"
      },
      "geometry": {
        "type": "Point",
        "coordinates": [
          -68.82495610497858,
          20.024855313097927
        ]
      }
    }
  ]
}